ORBCOMM FM33            
1 25983U 99065D   25168.92531747  .00000753  00000+0  28196-3 0  9999
2 25983  45.0299 355.4488 0008519  70.4257 289.7512 14.40003138336171
ORBCOMM FM36            
1 25984U 99065E   25169.72486441  .00000802  00000+0  30864-3 0  9999
2 25984  45.0396  83.6068 0004352 322.0214  38.0328 14.38126504334644
ORBCOMM FM35            
1 25985U 99065F   25169.49712380  .00000773  00000+0  30545-3 0  9991
2 25985  45.0396  89.7299 0004512  24.8333 335.2732 14.37098048334972
ORBCOMM FM34            
1 25986U 99065G   25169.46309817  .00000700  00000+0  28098-3 0  9996
2 25986  45.0392  90.3592 0005336 346.7161  13.3546 14.37121816335083
ORBCOMM FM38            
1 33060U 08031A   25169.89858347  .00001481  00000+0  21492-3 0  9993
2 33060  48.4416 307.0916 0004372  43.1159 317.0099 14.81333202915007
ORBCOMM FM41            
1 33061U 08031B   25169.70240515  .00001380  00000+0  20404-3 0  9996
2 33061  48.4453 315.8104 0003728  23.5781 349.9073 14.80916600914465
ORBCOMM FM29            
1 33062U 08031C   25169.68673039  .00001466  00000+0  21457-3 0  9999
2 33062  48.4405 323.6929 0005396  25.4927 348.8095 14.81018356914375
ORBCOMM FM39            
1 33063U 08031D   25169.78386858  .00001180  00000+0  18395-3 0  9991
2 33063  48.4421 347.5198 0006629 358.1163   1.9725 14.79570901914031
